BREEZE-M R/B            
1 38746U 12044C   16136.23487632  .00011336  00000-0  72856-3 0  9996
2 38746  49.6859  50.3316 2456139  83.3251 303.8432 10.39527147141054
BREEZE-M DEB            
1 38880U 12044M   16137.06629900  .00100148  60013-5  12454-2 0  9995
2 38880  49.8151  97.6011 1307976 262.3819  82.6984 13.04205267149073
BREEZE-M DEB            
1 38881U 12044N   16136.90072316  .00119323  65103-5  12076-2 0  9991
2 38881  50.4613 279.9244 1493644 354.9766   3.7431 12.66548373145853
BREEZE-M DEB            
1 38884U 12044R   16137.45976169  .00021731  27282-5  64029-3 0  9991
2 38884  50.0109 306.3115 2385581 120.8882 264.8262 10.65056893136584
BREEZE-M DEB            
1 38886U 12044T   16137.55130953  .00123720  93593-5  98160-3 0  9999
2 38886  49.9246 265.7762 0885209  29.0910 335.6464 14.03501836152962
BREEZE-M DEB            
1 38888U 12044V   16136.87843244  .00020310  31416-5  45446-3 0  9995
2 38888  50.0550  89.0971 2026154 292.0251  47.8076 11.43082376141808
BREEZE-M DEB            
1 38890U 12044X   16137.12710987  .00902874  18843-3  29384-2 0  9997
2 38890  50.0132  75.1626 0403321 170.4137 190.4817 15.22477187156538
BREEZE-M DEB            
1 38906U 12044AP  16136.51123553  .00190847  12105-4  16683-2 0  9997
2 38906  49.9418 124.8332 0855705 152.2459 212.6956 14.08498733155924
BREEZE-M DEB            
1 38921U 12044BE  16137.20539922  .00046448  38968-5  86762-3 0  9991
2 38921  50.2328 136.7558 1885223 220.7541 123.6151 11.74820359140734
BREEZE-M DEB            
1 38922U 12044BF  16137.40958698  .00025240  27393-5  64821-3 0  9998
2 38922  50.0704 222.0062 2257770 179.8496 180.3462 10.92976817138657
BREEZE-M DEB            
1 38926U 12044BK  16136.88742604  .00072632  47555-5  14135-2 0  9992
2 38926  50.0168 354.8662 1875521   9.3987 353.7335 11.76244107143896
BREEZE-M DEB            
1 38948U 12044CH  16134.79747861  .00035229  36479-5  74525-3 0  9998
2 38948  50.0955  50.2468 1946833 317.4552  29.0458 11.60261436142302
BREEZE-M DEB            
1 38957U 12044CQ  16131.45186195  .00036717  33269-5  76621-3 0  9991
2 38957  50.0391 148.5861 2007904 245.4023  92.5086 11.47553744139348
BREEZE-M DEB            
1 38960U 12044CT  16125.40324908  .00043255  34625-5  10410-2 0  9994
2 38960  50.1316 206.0813 2102720 183.8162 174.3977 11.25827878137959
BREEZE-M DEB            
1 38961U 12044CU  16134.78084594  .00035972  36986-5  74311-3 0  9990
2 38961  50.1153  42.3712 1944939 321.2767  26.3178 11.60972075142552
